{
    "links": {
        "self": "http://www.neowsapp.com/rest/v1/neo/3829430?api_key=iIulBulltgU6a56xZRHN4H3l9WmuAYTsLGpBGhQ2"
    },
    "id": "3829430",
    "neo_reference_id": "3829430",
    "name": "(2018 RT5)",
    "designation": "2018 RT5",
    "nasa_jpl_url": "http://ssd.jpl.nasa.gov/sbdb.cgi?sstr=3829430",
    "absolute_magnitude_h": 26.1,
    "estimated_diameter": {
        "kilometers": {
            "estimated_diameter_min": 0.0160160338,
            "estimated_diameter_max": 0.0358129403
        },
        "meters": {
            "estimated_diameter_min": 16.0160337979,
            "estimated_diameter_max": 35.8129403019
        },
        "miles": {
            "estimated_diameter_min": 0.0099518989,
            "estimated_diameter_max": 0.0222531225
        },
        "feet": {
            "estimated_diameter_min": 52.5460443254,
            "estimated_diameter_max": 117.4965270602
        }
    },
    "is_potentially_hazardous_asteroid": false,
    "close_approach_data": [
        {
            "close_approach_date": "1958-07-03",
            "close_approach_date_full": "1958-Jul-03 21:50",
            "epoch_date_close_approach": -362801400000,
            "relative_velocity": {
                "kilometers_per_second": "9.5614842515",
                "kilometers_per_hour": "34421.3433055597",
                "miles_per_hour": "21388.0841222796"
            },
            "miss_distance": {
                "astronomical": "0.0281247168",
                "lunar": "10.9405148352",
                "kilometers": "4207397.727633216",
                "miles": "2614355.7186657408"
            },
            "orbiting_body": "Earth"
        },
        {
            "close_approach_date": "1958-11-08",
            "close_approach_date_full": "1958-Nov-08 04:16",
            "epoch_date_close_approach": -351805440000,
            "relative_velocity": {
                "kilometers_per_second": "10.2882018159",
                "kilometers_per_hour": "37037.5265373008",
                "miles_per_hour": "23013.6786420245"
            },
            "miss_distance": {
                "astronomical": "0.0404173766",
                "lunar": "15.7223594974",
                "kilometers": "6046353.450347842",
                "miles": "3757029.8182585396"
            },
            "orbiting_body": "Mars"
        },
        {
            "close_approach_date": "2007-10-20",
            "close_approach_date_full": "2007-Oct-20 10:01",
            "epoch_date_close_approach": 1192874460000,
            "relative_velocity": {
                "kilometers_per_second": "23.8639897931",
                "kilometers_per_hour": "85910.3632551618",
                "miles_per_hour": "53381.3587681865"
            },
            "miss_distance": {
                "astronomical": "0.48791537",
                "lunar": "189.79907893",
                "kilometers": "72991100.0922619",
                "miles": "45354566.47813822"
            },
            "orbiting_body": "Earth"
        },
        {
            "close_approach_date": "2018-09-11",
            "close_approach_date_full": "2018-Sep-11 18:07",
            "epoch_date_close_approach": 1536689220000,
            "relative_velocity": {
                "kilometers_per_second": "9.6343137194",
                "kilometers_per_hour": "34683.5293896996",
                "miles_per_hour": "21550.9963588386"
            },
            "miss_distance": {
                "astronomical": "0.0039356491",
                "lunar": "1.5309674999",
                "kilometers": "588764.722427417",
                "miles": "365841.4342236746"
            },
            "orbiting_body": "Moon"
        },
        {
            "close_approach_date": "2018-09-12",
            "close_approach_date_full": "2018-Sep-12 03:57",
            "epoch_date_close_approach": 1536724620000,
            "relative_velocity": {
                "kilometers_per_second": "9.2821587361",
                "kilometers_per_hour": "33415.7714500826",
                "miles_per_hour": "20763.2608768583"
            },
            "miss_distance": {
                "astronomical": "0.0042022888",
                "lunar": "1.6346903432",
                "kilometers": "628653.453604856",
                "miles": "390627.1424487728"
            },
            "orbiting_body": "Earth"
        }
    ],
    "orbital_data": {
        "orbit_id": "5",
        "orbit_determination_date": "2018-10-07 06:47:20",
        "first_observation_date": "2018-09-13",
        "last_observation_date": "2018-10-01",
        "data_arc_in_days": 18,
        "observations_used": 81,
        "orbit_uncertainty": "7",
        "minimum_orbit_intersection": ".00406516",
        "jupiter_tisserand_invariant": "3.707",
        "epoch_osculation": "2459000.5",
        "eccentricity": ".5114819245927867",
        "semi_major_axis": "1.962455041461206",
        "inclination": "1.43612477807995",
        "ascending_node_longitude": "339.6095471247651",
        "orbital_period": "1004.14863231007",
        "perihelion_distance": ".9586947599278112",
        "perihelion_argument": "338.8194897689503",
        "aphelion_distance": "2.9662153229946",
        "perihelion_time": "2459353.453288061871",
        "mean_anomaly": "233.4617768587092",
        "mean_motion": ".3585126627836066",
        "equinox": "J2000",
        "orbit_class": {
            "orbit_class_type": "APO",
            "orbit_class_description": "Near-Earth asteroid orbits which cross the Earth’s orbit similar to that of 1862 Apollo",
            "orbit_class_range": "a (semi-major axis) > 1.0 AU; q (perihelion) < 1.017 AU"
        }
    },
    "is_sentry_object": false
}